{
  "type": "FeatureCollection",
  "features": [
    {
      "type": "Feature",
      "properties": {
        "norad_id": 67046,
        "name": "STARLINK-35721",
        "group": "last-30-days",
        "lat": 24.97879550599216,
        "lon": 127.49262845886727,
        "alt_km": 369.24658785683823,
        "timestamp": "2025-12-26T14:28:46.398802+00:00",
        "meta_object_name": "STARLINK-35721",
        "meta_object_id": "2025-294S",
        "meta_epoch": "2025-12-26T06:00:02.999808",
        "meta_mean_motion": 15.66718603,
        "meta_eccentricity": 0.00011632,
        "meta_inclination": 42.9997,
        "meta_ra_of_asc_node": 99.6118,
        "meta_arg_of_pericenter": 266.9267,
        "meta_mean_anomaly": 297.3706,
        "meta_ephemeris_type": 0,
        "meta_classification_type": "U",
        "meta_norad_cat_id": 67046,
        "meta_element_set_no": 999,
        "meta_rev_at_epoch": 247,
        "meta_bstar": -0.020150628,
        "meta_mean_motion_dot": -0.01929289,
        "meta_mean_motion_ddot": 0,
        "tle_line1": "1 67046U 25294S   25360.25003472 -.01929289  00000+0 -20151-1 0  9995",
        "tle_line2": "2 67046  42.9997  99.6118 0001163 266.9267 297.3706 15.66718603  2478"
      },
      "geometry": {
        "type": "Point",
        "coordinates": [
          127.49262845886727,
          24.97879550599216
        ]
      }
    },
    {
      "type": "Feature",
      "properties": {
        "norad_id": 67047,
        "name": "STARLINK-35779",
        "group": "last-30-days",
        "lat": 26.259738031397358,
        "lon": 129.4592350085799,
        "alt_km": 369.1618562829053,
        "timestamp": "2025-12-26T14:28:46.398812+00:00",
        "meta_object_name": "STARLINK-35779",
        "meta_object_id": "2025-294T",
        "meta_epoch": "2025-12-26T06:00:02.999808",
        "meta_mean_motion": 15.66697407,
        "meta_eccentricity": 0.00013187,
        "meta_inclination": 42.9998,
        "meta_ra_of_asc_node": 99.6061,
        "meta_arg_of_pericenter": 269.7619,
        "meta_mean_anomaly": 296.7516,
        "meta_ephemeris_type": 0,
        "meta_classification_type": "U",
        "meta_norad_cat_id": 67047,
        "meta_element_set_no": 999,
        "meta_rev_at_epoch": 228,
        "meta_bstar": -0.020195733,
        "meta_mean_motion_dot": -0.01931734,
        "meta_mean_motion_ddot": 0,
        "tle_line1": "1 67047U 25294T   25360.25003472 -.01931734  00000+0 -20196-1 0  9993",
        "tle_line2": "2 67047  42.9998  99.6061 0001318 269.7619 296.7516 15.66697407  2280"
      },
      "geometry": {
        "type": "Point",
        "coordinates": [
          129.4592350085799,
          26.259738031397358
        ]
      }
    },
    {
      "type": "Feature",
      "properties": {
        "norad_id": 67048,
        "name": "STARLINK-35905",
        "group": "last-30-days",
        "lat": 27.37366691222494,
        "lon": 131.24151616983576,
        "alt_km": 369.0138541892138,
        "timestamp": "2025-12-26T14:28:46.398822+00:00",
        "meta_object_name": "STARLINK-35905",
        "meta_object_id": "2025-294U",
        "meta_epoch": "2025-12-26T06:00:02.999808",
        "meta_mean_motion": 15.66694819,
        "meta_eccentricity": 0.00012761,
        "meta_inclination": 42.9998,
        "meta_ra_of_asc_node": 99.6014,
        "meta_arg_of_pericenter": 268.6413,
        "meta_mean_anomaly": 299.8196,
        "meta_ephemeris_type": 0,
        "meta_classification_type": "U",
        "meta_norad_cat_id": 67048,
        "meta_element_set_no": 999,
        "meta_rev_at_epoch": 239,
        "meta_bstar": -0.020194597,
        "meta_mean_motion_dot": -0.01931427,
        "meta_mean_motion_ddot": 0,
        "tle_line1": "1 67048U 25294U   25360.25003472 -.01931427  00000+0 -20195-1 0  9992",
        "tle_line2": "2 67048  42.9998  99.6014 0001276 268.6413 299.8196 15.66694819  2396"
      },
      "geometry": {
        "type": "Point",
        "coordinates": [
          131.24151616983576,
          27.37366691222494
        ]
      }
    },
    {
      "type": "Feature",
      "properties": {
        "norad_id": 67049,
        "name": "STARLINK-35877",
        "group": "last-30-days",
        "lat": 28.574331049727768,
        "lon": 133.24743894640162,
        "alt_km": 368.85285801082136,
        "timestamp": "2025-12-26T14:28:46.398832+00:00",
        "meta_object_name": "STARLINK-35877",
        "meta_object_id": "2025-294V",
        "meta_epoch": "2025-12-26T06:00:02.999808",
        "meta_mean_motion": 15.66676189,
        "meta_eccentricity": 0.00012033,
        "meta_inclination": 42.9998,
        "meta_ra_of_asc_node": 99.5962,
        "meta_arg_of_pericenter": 269.1835,
        "meta_mean_anomaly": 301.4432,
        "meta_ephemeris_type": 0,
        "meta_classification_type": "U",
        "meta_norad_cat_id": 67049,
        "meta_element_set_no": 999,
        "meta_rev_at_epoch": 247,
        "meta_bstar": -0.020202254,
        "meta_mean_motion_dot": -0.0193072,
        "meta_mean_motion_ddot": 0,
        "tle_line1": "1 67049U 25294V   25360.25003472 -.01930720  00000+0 -20202-1 0  9997",
        "tle_line2": "2 67049  42.9998  99.5962 0001203 269.1835 301.4432 15.66676189  2474"
      },
      "geometry": {
        "type": "Point",
        "coordinates": [
          133.24743894640162,
          28.574331049727768
        ]
      }
    },
    {
      "type": "Feature",
      "properties": {
        "norad_id": 67050,
        "name": "STARLINK-36078",
        "group": "last-30-days",
        "lat": 29.75080811671839,
        "lon": 135.3088592440776,
        "alt_km": 368.79183116337845,
        "timestamp": "2025-12-26T14:28:46.398842+00:00",
        "meta_object_name": "STARLINK-36078",
        "meta_object_id": "2025-294W",
        "meta_epoch": "2025-12-26T06:00:02.999808",
        "meta_mean_motion": 15.66656801,
        "meta_eccentricity": 0.00012756,
        "meta_inclination": 43.0002,
        "meta_ra_of_asc_node": 99.5902,
        "meta_arg_of_pericenter": 268.3883,
        "meta_mean_anomaly": 304.4148,
        "meta_ephemeris_type": 0,
        "meta_classification_type": "U",
        "meta_norad_cat_id": 67050,
        "meta_element_set_no": 999,
        "meta_rev_at_epoch": 239,
        "meta_bstar": -0.020199551,
        "meta_mean_motion_dot": -0.01929189,
        "meta_mean_motion_ddot": 0,
        "tle_line1": "1 67050U 25294W   25360.25003472 -.01929189  00000+0 -20200-1 0  9994",
        "tle_line2": "2 67050  43.0002  99.5902 0001275 268.3883 304.4148 15.66656801  2398"
      },
      "geometry": {
        "type": "Point",
        "coordinates": [
          135.3088592440776,
          29.75080811671839
        ]
      }
    },
    {
      "type": "Feature",
      "properties": {
        "norad_id": 67051,
        "name": "STARLINK-35706",
        "group": "last-30-days",
        "lat": 30.88906565912221,
        "lon": 137.4100879787352,
        "alt_km": 368.711333189206,
        "timestamp": "2025-12-26T14:28:46.398854+00:00",
        "meta_object_name": "STARLINK-35706",
        "meta_object_id": "2025-294X",
        "meta_epoch": "2025-12-26T06:00:02.999808",
        "meta_mean_motion": 15.66641523,
        "meta_eccentricity": 0.00012664,
        "meta_inclination": 43,
        "meta_ra_of_asc_node": 99.5848,
        "meta_arg_of_pericenter": 266.2568,
        "meta_mean_anomaly": 308.7112,
        "meta_ephemeris_type": 0,
        "meta_classification_type": "U",
        "meta_norad_cat_id": 67051,
        "meta_element_set_no": 999,
        "meta_rev_at_epoch": 247,
        "meta_bstar": -0.020244788,
        "meta_mean_motion_dot": -0.01931933,
        "meta_mean_motion_ddot": 0,
        "tle_line1": "1 67051U 25294X   25360.25003472 -.01931933  00000+0 -20245-1 0  9994",
        "tle_line2": "2 67051  43.0000  99.5848 0001266 266.2568 308.7112 15.66641523  2475"
      },
      "geometry": {
        "type": "Point",
        "coordinates": [
          137.4100879787352,
          30.88906565912221
        ]
      }
    },
    {
      "type": "Feature",
      "properties": {
        "norad_id": 67052,
        "name": "STARLINK-35720",
        "group": "last-30-days",
        "lat": 31.89803568123859,
        "lon": 139.37173673501593,
        "alt_km": 368.54738831624945,
        "timestamp": "2025-12-26T14:28:46.398866+00:00",
        "meta_object_name": "STARLINK-35720",
        "meta_object_id": "2025-294Y",
        "meta_epoch": "2025-12-26T06:00:02.999808",
        "meta_mean_motion": 15.66638055,
        "meta_eccentricity": 0.00012658,
        "meta_inclination": 43.0002,
        "meta_ra_of_asc_node": 99.5799,
        "meta_arg_of_pericenter": 268.362,
        "meta_mean_anomaly": 308.566,
        "meta_ephemeris_type": 0,
        "meta_classification_type": "U",
        "meta_norad_cat_id": 67052,
        "meta_element_set_no": 999,
        "meta_rev_at_epoch": 246,
        "meta_bstar": -0.020234987,
        "meta_mean_motion_dot": -0.01930863,
        "meta_mean_motion_ddot": 0,
        "tle_line1": "1 67052U 25294Y   25360.25003472 -.01930863  00000+0 -20235-1 0  9995",
        "tle_line2": "2 67052  43.0002  99.5799 0001265 268.3620 308.5660 15.66638055  2465"
      },
      "geometry": {
        "type": "Point",
        "coordinates": [
          139.37173673501593,
          31.89803568123859
        ]
      }
    }
  ]
}